1 26871U 01031A   12051.08420903 -.00000308  00000-0  10000-3 0  4658
2 26871 001.9934 074.2837 0002601 312.6167 093.0915 01.00277598 38814